0 DELTA 1 DEB
1 37656U 78026JT  13278.24490770  .00000427  00000-0  27047-3 0  4209
2 37656 098.5993 273.7103 0020275 137.2836 222.9920 14.08885609538686
0 DELTA 1 DEB
1 37656U 78026JT  13281.22765932  .00000274  00000-0  18211-3 0  4210
2 37656 098.5987 276.5563 0020059 127.9378 232.3350 14.08885963539100
0 DELTA 1 DEB
1 37656U 78026JT  13284.21041347  .00000158  00000-0  11492-3 0  4225
2 37656 098.5972 279.3990 0018931 119.4954 240.7833 14.08885836539525
0 DELTA 1 DEB
1 37656U 78026JT  13292.23542689  .00000213  00000-0  14699-3 0  4236
2 37656 098.6002 287.0611 0020716 098.4537 261.9369 14.08890538540653
